RADARSAT-2              
1 32382U 07061A   13115.91740321  .00000214  00000-0  10000-3 0  9227
2 32382  98.5759 124.4538 0001258  88.7452   1.7861 14.29983939280022
CARTOSAT-2A             
1 32783U 08021A   13115.87390666  .00000636  00000-0  93498-4 0  5347
2 32783  97.8623 175.5972 0015057 165.7082 194.4554 14.78711266269500
IMS-1                   
1 32786U 08021D   13115.80925774  .00000702  00000-0  97937-4 0   225
2 32786  97.7585 169.9245 0014161 130.9476 229.2958 14.80587255269759
JASON 2 (OSTM)          
1 33105U 08032A   13115.14873295 -.00000023  00000-0  16548-3 0  5961
2 33105  66.0438  26.4700 0007932 275.6919 230.2721 12.80930517226676
RAPIDEYE 2              
1 33312U 08040A   13115.76360704  .00000322  00000-0  49539-4 0  1979
2 33312  97.9044 205.9023 0011554 219.1131 140.9250 14.79897619251530
RAPIDEYE 5              
1 33313U 08040B   13115.78865244  .00000278  00000-0  43615-4 0  1846
2 33313  97.8996 204.9412 0019209  97.5273 262.8116 14.79898959251484
RAPIDEYE 1              
1 33314U 08040C   13115.77678814  .00000281  00000-0  44117-4 0  2350
2 33314  97.9026 205.9132 0023692 234.9837 124.9147 14.79893458251520
RAPIDEYE 3              
1 33315U 08040D   13115.81459419  .00000319  00000-0  49050-4 0  1671
2 33315  97.8979 204.8523 0012981 167.2324 192.9227 14.79899784251495
RAPIDEYE 4              
1 33316U 08040E   13115.80029828  .00000287  00000-0  44885-4 0  1617
2 33316  97.8971 204.6285 0013428 116.0275 244.2331 14.79902087251482
HUANJING 1A (HJ-1A)     
1 33320U 08041A   13115.79790126  .00000368  00000-0  62261-4 0  1222
2 33320  97.8238 180.6316 0026388 215.6877 144.2558 14.74723447249555
HUANJING 1B (HJ-1B)     
1 33321U 08041B   13115.76670617  .00000465  00000-0  76428-4 0  1815
2 33321  97.8263 180.9298 0035776 233.9342 125.8548 14.74725528249531
GEOEYE 1                
1 33331U 08042A   13115.84707544 -.00001189  00000-0 -21567-3 0  1411
2 33331  98.1167 190.5178 0008852 333.7320  26.3351 14.64445347247647
THEOS                   
1 33396U 08049A   13115.88559692  .00000152  00000-0  92129-4 0  9364
2 33396  98.7584 183.9801 0001100 102.8767  14.9410 14.19999052236706
COSMO-SKYMED 3          
1 33412U 08054A   13115.88268857  .00000528  00000-0  72847-4 0  9686
2 33412  97.8724 301.9368 0001527  83.4018 276.7376 14.82155790243493
YAOGAN 4                
1 33446U 08061A   13115.82877052  .00000292  00000-0  50867-4 0  8795
2 33446  97.7445 172.4582 0017669 166.5503 193.6151 14.74676844236820
YAOGAN 5                
1 33456U 08064A   13115.79606390  .00012187  00000-0  26732-3 0  8856
2 33456  97.2185 189.8232 0008466  57.1523  91.4837 15.44172436243575
GOSAT (IBUKI)           
1 33492U 09002A   13115.79338246  .00000038  00000-0  15202-4 0  3859
2 33492  98.0845 226.3029 0001844  75.5988 284.5423 14.67540549227868
YAOGAN 6                
1 34839U 09021A   13115.31991645  .00003036  00000-0  15191-3 0  4939
2 34839  97.3233 200.0600 0001967 114.8358 315.7726 15.18143428222315
RAZAKSAT                
1 35578U 09037A   13115.72283854  .00000810  00000-0  46557-4 0  1696
2 35578   8.9883 179.7500 0016442 208.5341 151.3958 14.65628978202940
DEIMOS-1                
1 35681U 09041A   13115.84039053  .00000267  00000-0  52636-4 0  1476
2 35681  98.0095  15.5410 0001529 105.3856 254.7526 14.69916989200664
OCEANSAT 2              
1 35931U 09051A   13115.81923427  .00000371  00000-0  10517-3 0  3377
2 35931  98.2757 212.5020 0003286 151.9918 354.5179 14.50848708190027
WORLDVIEW-2 (WV-2)      
1 35946U 09055A   13115.80871008  .00000013  00000-0  18904-4 0  9371
2 35946  98.4526 196.6847 0000524  87.2096 272.9135 14.37650630186051
SMOS                    
1 36036U 09059A   13115.53297918  .00000138  00000-0  57903-4 0   649
2 36036  98.4456 303.7720 0001124 105.0183 288.7658 14.39751478182817
YAOGAN 7                
1 36110U 09069A   13115.76477514 -.00000183  00000-0 -19796-4 0  7524
2 36110  98.0050 250.6461 0023603 277.9614  81.8927 14.74147117181809
TANDEM-X                
1 36605U 10030A   13115.58001639  .00001430  00000-0  71293-4 0  4277
2 36605  97.4468 123.8530 0001665 105.5608 254.5810 15.19154474157824
CARTOSAT 2B             
1 36795U 10035A   13115.84891575  .00000286  00000-0  45874-4 0  1289
2 36795  97.8643 177.4276 0014710 242.6073 117.3636 14.78712652150545
YAOGAN 10               
1 36834U 10038A   13115.88843204  .00000308  00000-0  46311-4 0   210
2 36834  97.8488 115.1486 0001219  53.1945 306.9383 14.81112571146493
COSMO-SKYMED 4          
1 37216U 10060A   13115.84468515  .00000215  00000-0  33551-4 0  7647
2 37216  97.8738 301.9011 0001484  79.1235 281.0149 14.82167098133572
SAC-D                   
1 37673U 11024A   13115.77535721  .00000352  00000-0  63475-4 0  6066
2 37673  98.0120 123.9600 0001515  98.9329 313.1507 14.72329257100813
RASAT                   
1 37791U 11044D   13115.82845376  .00000156  00000-0  39391-4 0  9071
2 37791  98.2025 199.3533 0021966 193.4758 166.5852 14.63611804 90319
MEGHA-TROPIQUES         
1 37838U 11058A   13114.84619406  .00000420  00000-0  88092-4 0  3948
2 37838  19.9776 283.6239 0009748  12.9104 129.4114 14.09684699 79170
SRMSAT                  
1 37841U 11058D   13115.79861362  .00000388  00000-0  68944-4 0  3753
2 37841  19.9719 275.2340 0012046  21.4810 114.0381 14.10216354 79363
YAOGAN 13               
1 37941U 11072A   13115.90473822  .00003744  00000-0  17774-3 0  5927
2 37941  97.3709  47.6648 0002255 111.1969 321.2531 15.19851439 77971
PLEIADES 1A             
1 38012U 11076F   13115.78614035  .00000150  00000-0  42072-4 0  5164
2 38012  98.2022 191.5463 0001253  81.7103 278.4230 14.58560518 72254
ZIYUAN 1-02C (ZY 1-02C) 
1 38038U 11079A   13115.79798162  .00000122  00000-0  57715-4 0  4922
2 38038  98.5043 193.0880 0000839  75.5491 284.5782 14.35363592 70399
ZIYUAN 3 (ZY 3)         
1 38046U 12001A   13115.86478691  .00003526  00000-0  16105-3 0  4734
2 38046  97.4404 193.2216 0006092  63.5448  48.6332 15.21223188 71874
RISAT 1                 
1 38248U 12017A   13115.90066610  .00001354  00000-0  89833-4 0  1333
2 38248  97.5943 123.2698 0000961 126.4791 327.2150 15.08921408 55032
ARIRANG 3 (KOMPSAT-3)   
1 38338U 12025B   13115.73785388  .00000247  00000-0  58905-4 0  6929
2 38338  98.1621  56.5798 0012215  39.6050 320.6041 14.61754735 50114
SPOT 6                  
1 38755U 12047A   13115.80239448  .00000131  00000-0  37875-4 0  7640
2 38755  98.1697 184.1656 0001311  89.2396 270.8952 14.58587918 33335
LANDSAT 8               
1 39084U 13008A   13115.33981785  .00000171  00000-0  48076-4 0  1159
2 39084  98.2141 187.0487 0001681  63.1102 297.0276 14.57120388 10604
SARAL                   
1 39086U 13009A   13114.95957915  .00000117  00000-0  59598-4 0  1013
2 39086  98.5256 304.3434 0001688  89.4264 270.7120 14.32257729  8368
